[{"OBJECT_NAME":"ICEYE-X6","OBJECT_ID":"2020-068M","EPOCH":"2026-03-09T22:38:15.311328","MEAN_MOTION":15.03906063,"ECCENTRICITY":0.00090855,"INCLINATION":98.0946,"RA_OF_ASC_NODE":57.9399,"ARG_OF_PERICENTER":68.4739,"MEAN_ANOMALY":291.7454,"EPHEMERIS_TYPE":0,"CLASSIFICATION_TYPE":"U","NORAD_CAT_ID":46497,"ELEMENT_SET_NO":999,"REV_AT_EPOCH":29831,"BSTAR":0.00025875904,"MEAN_MOTION_DOT":3.502e-5,"MEAN_MOTION_DDOT":0},{"OBJECT_NAME":"STARLINK-6347","OBJECT_ID":"2023-099AH","EPOCH":"2026-03-09T12:05:03.091200","MEAN_MOTION":15.02513581,"ECCENTRICITY":0.0001309,"INCLINATION":43.0076,"RA_OF_ASC_NODE":237.3814,"ARG_OF_PERICENTER":264.1599,"MEAN_ANOMALY":95.9094,"EPHEMERIS_TYPE":0,"CLASSIFICATION_TYPE":"U","NORAD_CAT_ID":57359,"ELEMENT_SET_NO":999,"REV_AT_EPOCH":14623,"BSTAR":0.00025263757,"MEAN_MOTION_DOT":3.209e-5,"MEAN_MOTION_DDOT":0}]
